IRIDIUM 166             
1 43570U 18061B   25280.94229914  .00000335  00000+0  11261-3 0  9996
2 43570  86.4021 162.1847 0002023  78.3997 281.7426 14.34218008377245
IRIDIUM 158             
1 43571U 18061C   25280.91058384  .00000452  00000+0  15439-3 0  9996
2 43571  86.4023 162.2078 0002314  84.9736 275.1724 14.34217165377209
IRIDIUM 165             
1 43572U 18061D   25280.93595517  .00000335  00000+0  11251-3 0  9991
2 43572  86.4022 162.2386 0002068  81.9918 278.1513 14.34217533377237
IRIDIUM 155             
1 43573U 18061E   25280.96766481  .00001066  00000+0  37363-3 0  9999
2 43573  86.4016 162.1072 0002370  79.5434 280.6028 14.34218390377202
IRIDIUM 154             
1 43574U 18061F   25280.94864959  .00000377  00000+0  12748-3 0  9991
2 43574  86.4022 162.2360 0002116  82.4944 277.6493 14.34211445377259
IRIDIUM 163             
1 43575U 18061G   25280.92961366  .00000021  00000+0  51210-6 0  9996
2 43575  86.4024 162.1674 0002183  87.5447 272.5999 14.34217273377224
IRIDIUM 156             
1 43576U 18061H   25280.90424117  .00000381  00000+0  12897-3 0  9997
2 43576  86.4020 162.1849 0002272  76.7302 283.4148 14.34217893377218
IRIDIUM 164             
1 43577U 18061J   25280.95498010  .00000301  00000+0  10042-3 0  9998
2 43577  86.4019 162.2000 0002003  80.1589 279.9833 14.34216905377264
